GLOBALSTAR M067         
1 32263U 07048A   25231.97206326 -.00000067  00000+0  22812-3 0  9994
2 32263  51.9705 209.2915 0001082 108.4960 287.0529 12.40675916817406
GLOBALSTAR M070         
1 32264U 07048B   25231.48901808 -.00000065  00000+0  21614-3 0  9995
2 32264  51.9753 295.6629 0000378 133.7868 329.9406 12.62321214821662
GLOBALSTAR M066         
1 32265U 07048C   25231.12162069 -.00000059  00000+0  29732-3 0  9997
2 32265  51.9511 205.0393 0003692 102.2350 339.5566 12.30249063823041
GLOBALSTAR M068         
1 32266U 07048D   25231.95454440 -.00000099  00000+0  27094-4 0  9990
2 32266  51.9879 107.8723 0000619 322.7608 141.8101 12.62826544825610
GLOBALSTAR M079         
1 37188U 10054A   25231.53350376 -.00000084  00000+0  10798-3 0  9992
2 37188  52.0051 306.9533 0000753 100.0257   3.9303 12.62266043684458
GLOBALSTAR M074         
1 37189U 10054B   25231.39649637 -.00000076  00000+0  15295-3 0  9996
2 37189  52.0029 306.6847 0000644 124.7849 314.8447 12.62270705685047
GLOBALSTAR M076         
1 37190U 10054C   25231.50763632 -.00000084  00000+0  11139-3 0  9995
2 37190  52.0040 306.5222 0000812 115.4343 349.9701 12.62264549684771
GLOBALSTAR M077         
1 37191U 10054D   25231.41381730 -.00000072  00000+0  17672-3 0  9996
2 37191  52.0055 263.6744 0000351 119.0431 345.0687 12.62323012685138
